NORAD_CAT_ID,OBJECT_NAME,OBJECT_TYPE,EPOCH,MEAN_MOTION,ECCENTRICITY,INCLINATION,RA_OF_ASC_NODE,ARG_OF_PERICENTER,MEAN_ANOMALY,BSTAR,MEAN_MOTION_DOT,MEAN_MOTION_DDOT,TLE_LINE0,TLE_LINE1,TLE_LINE2,SEMIMAJOR_AXIS,PERIOD,APOGEE,PERIGEE,DECAYED
49745.0,STARLINK-3241,PAYLOAD,2022-02-03 14:00:01,15.31499023,0.0001137,53.2172,22.2961,79.4705,309.4526,-0.023077,-0.0066097,0.0,0 STARLINK-3241,1 49745U 21115X   22034.58334491 -.00660970  00000-0 -23077-1 0  9997,2 49745  53.2172  22.2961 0001137  79.4705 309.4526 15.31499023 10914,6849.476,94.026,472.12,470.562,0.0
49745.0,STARLINK-3241,PAYLOAD,2022-02-03 22:00:01,15.31031049,0.0001261,53.2173,20.7435,65.6106,1.9155,-0.023322,-0.00658465,0.0,0 STARLINK-3241,1 49745U 21115X   22034.91668981 -.00658465  00000-0 -23322-1 0  9997,2 49745  53.2173  20.7435 0001261  65.6106   1.9155 15.31031049  3648,6850.871999999999,94.054,473.601,471.87300000000016,0.0
49745.0,STARLINK-3241,PAYLOAD,2022-02-04 14:00:01,15.30098661,0.0001322,53.2172,17.646,70.6876,72.2315,-0.024055,-0.0065961,0.0,0 STARLINK-3241,1 49745U 21115X   22035.58335648 -.00659610  00000-0 -24055-1 0  9999,2 49745  53.2172  17.6460 0001322  70.6876  72.2315 15.30098661 11064,6853.655,94.112,476.426,474.614,0.0
49745.0,STARLINK-3241,PAYLOAD,2022-02-04 22:00:00,15.29632744,0.0001416999999999,53.2173,16.0972,68.5629,111.1487,-0.02443,-0.00660232,0.0,0 STARLINK-3241,1 49745U 21115X   22035.91667824 -.00660232  00000-0 -24430-1 0  9999,2 49745  53.2173  16.0972 0001417  68.5629 111.1487 15.29632744  3634,6855.045999999999,94.14,477.883,475.94,0.0
49745.0,STARLINK-3241,PAYLOAD,2022-02-05 14:00:01,15.28698757,0.0001364,53.2171,13.0068,65.6639,186.0773,-0.025118,-0.00659542,0.0,0 STARLINK-3241,1 49745U 21115X   22036.58334491 -.00659542  00000-0 -25118-1 0  9990,2 49745  53.2171  13.0068 0001364  65.6639 186.0773 15.28698757  3617,6857.8380000000025,94.198,480.639,478.768,0.0
49745.0,STARLINK-3241,PAYLOAD,2022-02-05 22:00:01,15.28231477,0.0001356,53.2174,11.4603,70.8467,216.1336,-0.02539,-0.00657325,0.0,0 STARLINK-3241,1 49745U 21115X   22036.91668981 -.00657325  00000-0 -25390-1 0  9990,2 49745  53.2174  11.4603 0001356  70.8467 216.1336 15.28231477 11278,6859.236,94.227,482.031,480.171,0.0
49745.0,STARLINK-3241,PAYLOAD,2022-02-06 14:00:01,15.27179683,0.0001459,53.2173,8.3775,60.4071,295.3065,-0.019859,-0.00501683,0.0,0 STARLINK-3241,1 49745U 21115X   22037.58335648 -.00501683  00000-0 -19859-1 0  9993,2 49745  53.2173   8.3775 0001459  60.4071 295.3065 15.27179683  3618,6862.385,94.291,485.251,483.249,0.0
49745.0,STARLINK-3241,PAYLOAD,2022-02-06 22:00:00,15.26831208,0.0001286,53.2174,6.8339,64.7099,324.3655,-0.026464,-0.00656433,0.0,0 STARLINK-3241,1 49745U 21115X   22037.91667824 -.00656433  00000-0 -26464-1 0  9998,2 49745  53.2174   6.8339 0001286  64.7099 324.3655 15.26831208 11426,6863.429,94.313,486.177,484.412,0.0
49745.0,STARLINK-3241,PAYLOAD,2022-02-07 14:00:01,15.25899588,0.0001284999999999,53.2174,3.7556,65.9724,28.4047,-0.027362,-0.00659518,0.0,0 STARLINK-3241,1 49745U 21115X   22038.58334491 -.00659518  00000-0 -27362-1 0  9998,2 49745  53.2174   3.7556 0001285  65.9724  28.4047 15.25899588  3646,6866.222,94.371,488.97,487.205,0.0
49745.0,STARLINK-3241,PAYLOAD,2022-02-07 22:00:00,15.25432538,0.0001474,53.2175,2.217,57.6745,68.5134,-0.027691,-0.00658198,0.0,0 STARLINK-3241,1 49745U 21115X   22038.91667824 -.00658198  00000-0 -27691-1 0  9992,2 49745  53.2175   2.2170 0001474  57.6745  68.5134 15.25432538 11575,6867.624,94.399,490.501,488.477,0.0
49745.0,STARLINK-3241,PAYLOAD,2022-02-08 14:00:01,15.24500503,0.0001477,53.2174,359.1451,62.8367,125.2893,-0.028583,-0.00660405,0.0,0 STARLINK-3241,1 49745U 21115X   22039.58334491 -.00660405  00000-0 -28583-1 0  9992,2 49745  53.2174 359.1451 0001477  62.8367 125.2893 15.24500503  3640,6870.4230000000025,94.457,493.302,491.273,0.0
49745.0,STARLINK-3241,PAYLOAD,2022-02-08 22:00:01,15.23915776,0.0001381,53.2173,357.6113,61.2381,157.1451,-0.021861,-0.00500433,0.0,0 STARLINK-3241,1 49745U 21115X   22039.91668981 -.00500433  00000-0 -21861-1 0  9999,2 49745  53.2173 357.6113 0001381  61.2381 157.1451 15.23915776 11723,6872.18,94.493,494.994,493.096,0.0
49745.0,STARLINK-3241,PAYLOAD,2022-02-09 06:00:00,15.23565343,0.0001606,53.2174,356.0784,55.1243,192.6978,-0.029224,-0.00656832,0.0,0 STARLINK-3241,1 49745U 21115X   22040.25001157 -.00656832  00000-0 -29224-1 0  9990,2 49745  53.2174 356.0784 0001606  55.1243 192.6978 15.23565343 11774,6873.234,94.515,496.203,493.995,0.0
49745.0,STARLINK-3241,PAYLOAD,2022-02-09 14:22:19,15.24279759,0.0001895,53.2193,354.4977,40.8182,319.2959,-0.0081869,-0.00197548,0.0,0 STARLINK-3241,1 49745U 21115X   22040.59884141 -.00197548  00000-0 -81869-2 0  9997,2 49745  53.2193 354.4977 0001895  40.8182 319.2959 15.24279759 10728,6871.0859999999975,94.471,494.253,491.649,0.0
49745.0,STARLINK-3241,PAYLOAD,2022-02-10 14:00:01,15.21700938,0.0001363,53.2175,349.9538,56.3417,304.209,-0.031084,-0.00660636,0.0,0 STARLINK-3241,1 49745U 21115X   22041.58335648 -.00660636  00000-0 -31084-1 0  9996,2 49745  53.2175 349.9538 0001363  56.3417 304.2090 15.21700938 11987,6878.847,94.631,501.649,499.774,0.0
49745.0,STARLINK-3241,PAYLOAD,2022-02-10 14:00:23,15.2291777,0.0003343,53.2196,349.9806,29.1023,331.0161,-0.008764,-0.0020294,0.0,0 STARLINK-3241,1 49745U 21115X   22041.58360709 -.00202940  00000-0 -87640-2 0  9992,2 49745  53.2196 349.9806 0003343  29.1023 331.0161 15.22917770 10878,6875.182,94.555,499.345,494.749,0.0
49745.0,STARLINK-3241,PAYLOAD,2022-02-10 22:00:00,15.21233894,0.0001503,53.2175,348.4258,47.8329,339.4189,-0.031429,-0.00658962,0.0,0 STARLINK-3241,1 49745U 21115X   22041.91667824 -.00658962  00000-0 -31429-1 0  9999,2 49745  53.2175 348.4258 0001503  47.8329 339.4189 15.21233894  3626,6880.255,94.66,503.154,501.086,0.0
49745.0,STARLINK-3241,PAYLOAD,2022-02-11 13:39:46,15.21491831,0.0002591,53.221,345.4626,48.2821,311.8398,-0.0088013,-0.00195576,0.0,0 STARLINK-3241,1 49745U 21115X   22042.56928594 -.00195576  00000-0 -88013-2 0  9994,2 49745  53.2210 345.4626 0002591  48.2821 311.8398 15.21491831 12131,6879.477,94.644,503.124,499.56,0.0
49745.0,STARLINK-3241,PAYLOAD,2022-02-11 22:00:01,15.19833712,0.0001657,53.2174,343.8482,45.4358,58.8097,-0.032731,-0.00665813,0.0,0 STARLINK-3241,1 49745U 21115X   22042.91668981 -.00665813  00000-0 -32731-1 0  9995,2 49745  53.2174 343.8482 0001657  45.4358  58.8097 15.19833712 12182,6884.48,94.747,507.485,505.204,0.0
49745.0,STARLINK-3241,PAYLOAD,2022-02-12 05:26:40,15.20622578,0.0001776999999999,53.2194,342.4534,70.6418,289.4771,-0.0094529,-0.00204481,0.0,0 STARLINK-3241,1 49745U 21115X   22043.22686007 -.00204481  00000-0 -94529-2 0  9993,2 49745  53.2194 342.4534 0001777  70.6418 289.4771 15.20622578 12232,6882.099,94.698,505.186,502.741,0.0
49745.0,STARLINK-3241,PAYLOAD,2022-02-12 13:20:19,15.20198036,0.0002345,53.2204,340.9531,42.1445,317.9732,-0.0091944,-0.00196667,0.0,0 STARLINK-3241,1 49745U 21115X   22043.55578369 -.00196667  00000-0 -91944-2 0  9994,2 49745  53.2204 340.9531 0002345  42.1445 317.9732 15.20198036 11173,6883.38,94.725,506.859,503.631,0.0
49745.0,STARLINK-3241,PAYLOAD,2022-02-12 22:00:00,15.18433315,0.0001761,53.2175,339.2806,46.9058,129.1608,-0.034029,-0.00664646,0.0,0 STARLINK-3241,1 49745U 21115X   22043.91667824 -.00664646  00000-0 -34029-1 0  9996,2 49745  53.2175 339.2806 0001761  46.9058 129.1608 15.18433315 12332,6888.712,94.835,511.79,509.364,0.0
49745.0,STARLINK-3241,PAYLOAD,2022-02-13 14:00:01,15.17499495,0.0001663,53.2174,336.2406,49.4315,171.755,-0.034868,-0.00662983,0.0,0 STARLINK-3241,1 49745U 21115X   22044.58334491 -.00662983  00000-0 -34868-1 0  9994,2 49745  53.2174 336.2406 0001663  49.4315 171.7550 15.17499495  3642,6891.538000000001,94.893,514.549,512.257,0.0
49745.0,STARLINK-3241,PAYLOAD,2022-02-14 06:00:00,15.16563956,0.0001517,53.2173,333.207,58.0527,206.0106,-0.035577,-0.00658761,0.0,0 STARLINK-3241,1 49745U 21115X   22045.25001157 -.00658761  00000-0 -35577-1 0  9996,2 49745  53.2173 333.2070 0001517  58.0527 206.0106 15.16563956 12545,6894.371999999999,94.951,517.2819999999998,515.191,0.0
49745.0,STARLINK-3241,PAYLOAD,2022-02-14 14:00:01,15.16099365,0.0001607,53.2175,331.6891,49.0657,235.5957,-0.036263,-0.00662354,0.0,0 STARLINK-3241,1 49745U 21115X   22045.58334491 -.00662354  00000-0 -36263-1 0  9998,2 49745  53.2175 331.6891 0001607  49.0657 235.5957 15.16099365  3644,6895.78,94.981,518.753,516.5369999999998,0.0
49745.0,STARLINK-3241,PAYLOAD,2022-02-14 20:00:01,15.15750676,0.0001859,53.2175,330.5529,43.9786,165.7625,-0.036728,-0.00664102,0.0,0 STARLINK-3241,1 49745U 21115X   22045.83334491 -.00664102  00000-0 -36728-1 0  9995,2 49745  53.2175 330.5529 0001859  43.9786 165.7625 15.15750676  3627,6896.8380000000025,95.002,519.985,517.42,0.0
49745.0,STARLINK-3241,PAYLOAD,2022-02-15 06:00:00,15.15165448,0.0001450999999999,53.2173,328.662,54.9088,269.2649,-0.037136,-0.00660558,0.0,0 STARLINK-3241,1 49745U 21115X   22046.25001157 -.00660558  00000-0 -37136-1 0  9997,2 49745  53.2173 328.6620 0001451  54.9088 269.2649 15.15165448 12690,6898.613,95.039,521.479,519.477,0.0
49745.0,STARLINK-3241,PAYLOAD,2022-02-15 14:00:01,15.14568369,0.0001659,53.2182,327.1495,37.1697,305.9915,-0.02728,-0.00477102,0.0,0 STARLINK-3241,1 49745U 21115X   22046.58334491 -.00477102  00000-0 -27280-1 0  9993,2 49745  53.2182 327.1495 0001659  37.1697 305.9915 15.14568369  3606,6900.426,95.077,523.436,521.146,0.0
49745.0,STARLINK-3241,PAYLOAD,2022-02-15 22:00:01,15.14234711,0.0001751,53.2176,325.6363,38.8461,322.6615,-0.038418,-0.00665251,0.0,0 STARLINK-3241,1 49745U 21115X   22046.91668981 -.00665251  00000-0 -38418-1 0  9993,2 49745  53.2176 325.6363 0001751  38.8461 322.6615 15.14234711  3622,6901.44,95.098,524.513,522.096,0.0
